STARLINK-30041          
1 57613U 23119M   24142.12719787  .00013680  00000+0  10259-2 0  9999
2 57613  43.0022  54.4273 0000837 234.4827 125.5938 15.02531834 44168
STARLINK-30244          
1 57614U 23119N   24142.12385396  .00001294  00000+0  11082-3 0  9999
2 57614  43.0041  54.4061 0001644 275.7713  84.2942 15.02540532 44165
STARLINK-30246          
1 57615U 23119P   24142.18697055 -.00007131  00000+0 -51306-3 0  9995
2 57615  43.0043  54.0023 0004235 266.6739  93.3619 15.02544554 44168
STARLINK-30075          
1 57616U 23119Q   24142.18379817  .00013385  00000+0  10033-2 0  9996
2 57616  43.0039  54.8588 0001357 273.3155  86.7532 15.02562462 44165
STARLINK-30148          
1 57617U 23119R   24142.11397923 -.00003454  00000+0 -24076-3 0  9999
2 57617  43.0034  55.1925 0002026 283.1533  76.9083 15.02530853 44153
STARLINK-30249          
1 57618U 23119S   24142.17712977  .00005725  00000+0  43829-3 0  9994
2 57618  43.0036  54.8063 0001443 257.3641 102.7040 15.02555547 44114
STARLINK-30141          
1 57620U 23119U   24142.09956131  .00007676  00000+0  58270-3 0  9993
2 57620  43.0015  55.0829 0001363 262.4432  97.6255 15.02535069 44109
STARLINK-30150          
1 57621U 23119V   24142.16714828  .00003310  00000+0  26000-3 0  9994
2 57621  43.0061  54.7315 0001207 294.5603  65.5113 15.02530594 44161
STARLINK-30056          
1 57622U 23119W   24142.09733598  .00025687  00000+0  19086-2 0  9998
2 57622  43.0030  55.0366 0001995 246.7593 113.3039 15.02556494 44154
STARLINK-30100          
1 57623U 23119X   24142.16048341  .00006386  00000+0  48719-3 0  9993
2 57623  43.0046  54.6814 0001389 270.3661  89.7022 15.02550332 44165
STARLINK-30309          
1 57632U 23122A   24142.20015356  .00001761  00000+0  14553-3 0  9993
2 57632  43.0057  67.6538 0001276 254.0136 106.0565 15.02511530 43256
STARLINK-30306          
1 57633U 23122B   24142.19680557  .00016893  00000+0  12623-2 0  9990
2 57633  43.0039  67.6303 0001396 260.2505  99.8179 15.02545415 43269
STARLINK-30323          
1 57634U 23122C   24142.12497441  .00005866  00000+0  44897-3 0  9999
2 57634  43.0032  54.3540 0001205 258.6607 101.4100 15.02535639 43409
STARLINK-30329          
1 57635U 23122D   24142.19348273  .00026617  00000+0  19768-2 0  9990
2 57635  43.0020  67.6031 0000859 258.2180 101.8566 15.02557972 43218
STARLINK-30330          
1 57636U 23122E   24141.85778125  .00016430  00000+0  12288-2 0  9998
2 57636  43.0044  69.3863 0001767 276.2581  83.8060 15.02527136 43218
STARLINK-30311          
1 57637U 23122F   24141.85109470 -.00000314  00000+0 -81150-5 0  9993
2 57637  43.0010  69.3302 0002602 283.7595  76.2958 15.02535912 43209
STARLINK-30328          
1 57638U 23122G   24142.13160786 -.00000246  00000+0 -31352-5 0  9996
2 57638  43.0016  54.3425 0000919 247.1920 112.8825 15.02547826 43411
STARLINK-30326          
1 57639U 23122H   24142.14687018  .00016428  00000+0  12275-2 0  9997
2 57639  43.0032  67.2448 0001437 279.6503  80.4177 15.02562336 43267
STARLINK-30324          
1 57640U 23122J   24142.17682795  .00000806  00000+0  74682-4 0  9994
2 57640  43.0016  67.4733 0001192 255.1734 104.8976 15.02546552 43252
STARLINK-30312          
1 57641U 23122K   24141.84111471  .00003129  00000+0  24672-3 0  9990
2 57641  43.0040  69.2603 0003292 285.1200  74.9278 15.02525737 43209
STARLINK-30263          
1 57642U 23122L   24142.16684600  .00010431  00000+0  78581-3 0  9998
2 57642  43.0032  67.4026 0001291 257.4753 102.5945 15.02549355 43258
STARLINK-30280          
1 57643U 23122M   24142.15685665 -.00002152  00000+0 -14428-3 0  9993
2 57643  43.0027  67.3260 0001225 273.1119  86.9583 15.02543597 43255
STARLINK-30247          
1 57644U 23122N   24141.16303122  .00020650  00000+0  15396-2 0  9994
2 57644  43.0045  72.7752 0001234 239.6127 120.4594 15.02527135 43120
STARLINK-30277          
1 57645U 23122P   24142.14683292  .00002580  00000+0  10846-3 0  9991
2 57645  43.0025  57.8945 0001519 259.3583 100.7097 15.25908612 43372
STARLINK-30265          
1 57646U 23122Q   24141.83778119  .00004324  00000+0  33487-3 0  9994
2 57646  43.0032  69.2348 0001957 269.8189  90.2429 15.02551891 43201
STARLINK-30286          
1 57647U 23122R   24141.82113871  .00002799  00000+0  22219-3 0  9997
2 57647  43.0029  69.1069 0001251 279.5829  80.4872 15.02540807 43155
STARLINK-30243          
1 57648U 23122S   24141.94075832  .00002426  00000+0  19454-3 0  9999
2 57648  43.0046  68.2886 0001401 267.6219  92.4463 15.02541648 43232
STARLINK-30299          
1 57650U 23122U   24141.81779929  .00001236  00000+0  10657-3 0  9990
2 57650  43.0030  69.0817 0001565 260.2952  99.7714 15.02536172 43218
STARLINK-30294          
1 57651U 23122V   24142.14382971  .00002438  00000+0  19547-3 0  9997
2 57651  43.0049  54.5053 0001593 265.3766  94.6895 15.02537912 43363
STARLINK-30276          
1 57652U 23122W   24141.81114762  .00010445  00000+0  78694-3 0  9997
2 57652  43.0013  69.0319 0001045 233.8464 126.2282 15.02544706 43202
STARLINK-30289          
1 57653U 23122X   24142.14714935  .00034139  00000+0  25307-2 0  9991
2 57653  43.0034  54.4834 0002329 248.3441 111.7153 15.02524781 43418
STARLINK-30267          
1 57663U 23124A   24142.04438492  .00011577  00000+0  42987-3 0  9999
2 57663  53.1532  23.2827 0001146  90.3383 269.7748 15.28026564 42716
STARLINK-30302          
1 57664U 23124B   24141.94640434  .00045238  00000+0  16320-2 0  9991
2 57664  53.0832  25.1788 0001261  97.6243 262.4899 15.28097407 42811
STARLINK-30298          
1 57665U 23124C   24141.84866539  .00003068  00000+0  12335-3 0  9995
2 57665  53.1554  25.6474 0000658 138.8096 221.2953 15.28024075 42808
STARLINK-30301          
1 57666U 23124D   24142.06848930 -.00006740  00000+0 -44421-3 0  9999
2 57666  53.1512  11.4335 0001251  85.2381 274.8752 15.05552196 43014
STARLINK-30275          
1 57667U 23124E   24141.97477586 -.00000773  00000+0 -15256-4 0  9999
2 57667  53.1325  24.7921 0001128 102.4941 257.6185 15.28034824 42467
STARLINK-30278          
1 57668U 23124F   24142.10551901  .00011926  00000+0  49093-3 0  9995
2 57668  53.1313  24.9837 0000992  91.3063 268.8048 15.24549040 42832
STARLINK-30271          
1 57669U 23124G   24142.07250457  .00009458  00000+0  35373-3 0  9997
2 57669  53.1205  23.9676 0001030  86.6401 273.4716 15.28015211 42847
STARLINK-30322          
1 57670U 23124H   24141.83409135  .00011375  00000+0  42290-3 0  9998
2 57670  53.0912  24.4870 0000742  68.0323 292.0755 15.28003395 42458
STARLINK-30296          
1 57671U 23124J   24141.85696017  .00011416  00000+0  42422-3 0  9991
2 57671  53.1642  22.7793 0000497  67.5098 292.5954 15.28014479 42546
STARLINK-30274          
1 57672U 23124K   24141.87163697 -.00009683  00000+0 -33767-3 0  9994
2 57672  53.1688  25.1199 0001199  15.0887 345.0148 15.27991689 42666
STARLINK-30316          
1 57673U 23124L   24141.85333456  .00090194  00000+0  32220-2 0  9992
2 57673  53.1485  25.6049 0001002 143.5864 216.5203 15.28096009 42506
STARLINK-30314          
1 57674U 23124M   24141.85769672  .00015036  00000+0  55436-3 0  9993
2 57674  53.1688  25.7241 0000993 115.9670 244.1432 15.28023350 42446
STARLINK-30317          
1 57675U 23124N   24141.96979506  .00005035  00000+0  19426-3 0  9992
2 57675  53.1636  25.0157 0000882 106.1065 254.0032 15.28025871 42824
STARLINK-30313          
1 57676U 23124P   24142.06318266 -.00000591  00000+0 -86935-5 0  9990
2 57676  53.1680  24.1823 0000973  69.7795 290.3309 15.28016910 42845
STARLINK-30303          
1 57677U 23124Q   24141.97447064  .00004948  00000+0  19111-3 0  9997
2 57677  53.1598  25.0207 0000771 101.6010 258.5076 15.28030068 42681
STARLINK-30320          
1 57678U 23124R   24141.88567246  .00003931  00000+0  15447-3 0  9992
2 57678  53.1660  25.2079 0000847  56.2544 303.8536 15.28023165 42812
STARLINK-30321          
1 57679U 23124S   24142.11464237  .00000864  00000+0  43851-4 0  9999
2 57679  53.1605  24.4661 0000865 134.9429 225.1641 15.28022394 42384
STARLINK-30283          
1 57680U 23124T   24141.97003265 -.00001533  00000+0 -42722-4 0  9996
2 57680  53.1574  24.2436 0000964 132.1926 227.9156 15.28014836 42834
STARLINK-30273          
1 57681U 23124U   24141.90451668  .00067131  00000+0  25279-2 0  9994
2 57681  53.1224  25.8686 0003091 207.4636 152.6199 15.26501349 42805
STARLINK-30297          
1 57682U 23124V   24141.86227729  .00002387  00000+0  98786-4 0  9996
2 57682  53.1693  25.0614 0000587 106.6883 253.4181 15.28024185 42812
STARLINK-30295          
1 57683U 23124W   24141.97832590  .00002508  00000+0  10318-3 0  9996
2 57683  53.1637  21.4420 0001270  59.5818 300.5307 15.28025077 42860
STARLINK-30288          
1 57698U 23129A   24141.26880176  .00001940  00000+0  15865-3 0  9993
2 57698  43.0032  97.7247 0001369 257.8224 102.2465 15.02543745 41612
STARLINK-30347          
1 57699U 23129B   24141.85085627  .00006329  00000+0  48301-3 0  9994
2 57699  43.0020  82.4151 0001289 262.9740  97.0955 15.02549675 41844
STARLINK-30332          
1 57700U 23129C   24142.06322366  .00018000  00000+0  13437-2 0  9995
2 57700  43.0023  93.3677 0001591 277.5755  82.4907 15.02548317 41597
STARLINK-30345          
1 57701U 23129D   24142.18295807  .00001585  00000+0  13235-3 0  9995
2 57701  43.0016  93.4017 0001067 287.2190  72.8536 15.02547128 41385
STARLINK-30333          
1 57702U 23129E   24142.10982128 -.00000393  00000+0 -14014-4 0  9992
2 57702  43.0022  93.7097 0001368 259.3724 100.6964 15.02527962 41739
STARLINK-30336          
1 57703U 23129F   24142.17962372  .00012570  00000+0  94348-3 0  9994
2 57703  43.0023  93.3796 0004657 297.3676  62.6692 15.02547299 41443
STARLINK-30346          
1 57704U 23129G   24142.23611257 -.00000683  00000+0 -35545-4 0  9994
2 57704  43.0023  92.9448 0001140 272.5273  87.5438 15.02524042 41619
STARLINK-30342          
1 57705U 23129H   24142.25929443  .00002122  00000+0  17209-3 0  9990
2 57705  43.0046  92.2502 0002666 222.6102 137.4534 15.02542927 41760
